{
  "type": "FeatureCollection",
  "features": [
    {
      "type": "Feature",
      "properties": {
        "norad_id": 36371,
        "name": "COSMOS 2251 DEB",
        "group": "cosmos-2251-debris",
        "lat": 49.56344401273924,
        "lon": 179.01581960433722,
        "alt_km": 659.7503411341722,
        "timestamp": "2025-12-13T20:38:51.405243+00:00",
        "meta_object_name": "COSMOS 2251 DEB",
        "meta_object_id": "1993-036AYY",
        "meta_epoch": "2025-12-13T04:05:01.207968",
        "meta_mean_motion": 14.70618704,
        "meta_eccentricity": 0.00096817,
        "meta_inclination": 74.0127,
        "meta_ra_of_asc_node": 160.6969,
        "meta_arg_of_pericenter": 198.9381,
        "meta_mean_anomaly": 161.1432,
        "meta_ephemeris_type": 0,
        "meta_classification_type": "U",
        "meta_norad_cat_id": 36371,
        "meta_element_set_no": 999,
        "meta_rev_at_epoch": 71451,
        "meta_bstar": 0.0027229729,
        "meta_mean_motion_dot": 0.00016584,
        "meta_mean_motion_ddot": 0,
        "tle_line1": "1 36371U 93036AYY 25347.17015287  .00016584  00000+0  27230-2 0  9992",
        "tle_line2": "2 36371  74.0127 160.6969 0009681 198.9381 161.1432 14.70618704714517"
      },
      "geometry": {
        "type": "Point",
        "coordinates": [
          179.01581960433722,
          49.56344401273924
        ]
      }
    },
    {
      "type": "Feature",
      "properties": {
        "norad_id": 36379,
        "name": "COSMOS 2251 DEB",
        "group": "cosmos-2251-debris",
        "lat": 68.76071133218109,
        "lon": -7.706451029402551,
        "alt_km": 732.5585191203809,
        "timestamp": "2025-12-13T20:38:51.405252+00:00",
        "meta_object_name": "COSMOS 2251 DEB",
        "meta_object_id": "1993-036AZG",
        "meta_epoch": "2025-12-13T03:39:01.651680",
        "meta_mean_motion": 14.36079534,
        "meta_eccentricity": 0.00446264,
        "meta_inclination": 74.0126,
        "meta_ra_of_asc_node": 306.0647,
        "meta_arg_of_pericenter": 74.8853,
        "meta_mean_anomaly": 301.0382,
        "meta_ephemeris_type": 0,
        "meta_classification_type": "U",
        "meta_norad_cat_id": 36379,
        "meta_element_set_no": 999,
        "meta_rev_at_epoch": 64834,
        "meta_bstar": 0.00045338854,
        "meta_mean_motion_dot": 1.309e-05,
        "meta_mean_motion_ddot": 0,
        "tle_line1": "1 36379U 93036AZG 25347.15210245  .00001309  00000+0  45339-3 0  9999",
        "tle_line2": "2 36379  74.0126 306.0647 0044626  74.8853 301.0382 14.36079534648347"
      },
      "geometry": {
        "type": "Point",
        "coordinates": [
          -7.706451029402551,
          68.76071133218109
        ]
      }
    },
    {
      "type": "Feature",
      "properties": {
        "norad_id": 36385,
        "name": "COSMOS 2251 DEB",
        "group": "cosmos-2251-debris",
        "lat": 6.204190808691577,
        "lon": -29.443224079888925,
        "alt_km": 742.8337121571012,
        "timestamp": "2025-12-13T20:38:51.405263+00:00",
        "meta_object_name": "COSMOS 2251 DEB",
        "meta_object_id": "1993-036AZN",
        "meta_epoch": "2025-12-12T21:01:44.669280",
        "meta_mean_motion": 14.72571648,
        "meta_eccentricity": 0.01412662,
        "meta_inclination": 73.9694,
        "meta_ra_of_asc_node": 154.2714,
        "meta_arg_of_pericenter": 328.6533,
        "meta_mean_anomaly": 30.6271,
        "meta_ephemeris_type": 0,
        "meta_classification_type": "U",
        "meta_norad_cat_id": 36385,
        "meta_element_set_no": 999,
        "meta_rev_at_epoch": 85104,
        "meta_bstar": 0.0019203945,
        "meta_mean_motion_dot": 0.00014301,
        "meta_mean_motion_ddot": 0,
        "tle_line1": "1 36385U 93036AZN 25346.87621145  .00014301  00000+0  19204-2 0  9996",
        "tle_line2": "2 36385  73.9694 154.2714 0141266 328.6533  30.6271 14.72571648851041"
      },
      "geometry": {
        "type": "Point",
        "coordinates": [
          -29.443224079888925,
          6.204190808691577
        ]
      }
    },
    {
      "type": "Feature",
      "properties": {
        "norad_id": 36420,
        "name": "COSMOS 2251 DEB",
        "group": "cosmos-2251-debris",
        "lat": -39.82428887909776,
        "lon": -100.38553607625506,
        "alt_km": 765.4412386367803,
        "timestamp": "2025-12-13T20:38:51.405274+00:00",
        "meta_object_name": "COSMOS 2251 DEB",
        "meta_object_id": "1993-036AZT",
        "meta_epoch": "2025-12-09T05:12:09.080064",
        "meta_mean_motion": 14.36895704,
        "meta_eccentricity": 0.001793,
        "meta_inclination": 74.0374,
        "meta_ra_of_asc_node": 281.9559,
        "meta_arg_of_pericenter": 10.5601,
        "meta_mean_anomaly": 57.255,
        "meta_ephemeris_type": 0,
        "meta_classification_type": "U",
        "meta_norad_cat_id": 36420,
        "meta_element_set_no": 999,
        "meta_rev_at_epoch": 84986,
        "meta_bstar": 0.00029505,
        "meta_mean_motion_dot": 8.48e-06,
        "meta_mean_motion_ddot": 0,
        "tle_line1": "1 36420U 93036AZT 25343.21677176  .00000848  00000+0  29505-3 0  9993",
        "tle_line2": "2 36420  74.0374 281.9559 0017930  10.5601  57.2550 14.36895704849860"
      },
      "geometry": {
        "type": "Point",
        "coordinates": [
          -100.38553607625506,
          -39.82428887909776
        ]
      }
    },
    {
      "type": "Feature",
      "properties": {
        "norad_id": 36430,
        "name": "COSMOS 2251 DEB",
        "group": "cosmos-2251-debris",
        "lat": -53.534607643533796,
        "lon": 83.65805550241375,
        "alt_km": 757.8568212272467,
        "timestamp": "2025-12-13T20:38:51.405284+00:00",
        "meta_object_name": "COSMOS 2251 DEB",
        "meta_object_id": "1993-036BAD",
        "meta_epoch": "2025-12-07T15:14:59.696160",
        "meta_mean_motion": 14.27773173,
        "meta_eccentricity": 0.00973352,
        "meta_inclination": 74.0036,
        "meta_ra_of_asc_node": 117.7938,
        "meta_arg_of_pericenter": 268.8676,
        "meta_mean_anomaly": 90.1319,
        "meta_ephemeris_type": 0,
        "meta_classification_type": "U",
        "meta_norad_cat_id": 36430,
        "meta_element_set_no": 999,
        "meta_rev_at_epoch": 64484,
        "meta_bstar": 0.00083938099,
        "meta_mean_motion_dot": 2.154e-05,
        "meta_mean_motion_ddot": 0,
        "tle_line1": "1 36430U 93036BAD 25341.63541315  .00002154  00000+0  83938-3 0  9995",
        "tle_line2": "2 36430  74.0036 117.7938 0097335 268.8676  90.1319 14.27773173644845"
      },
      "geometry": {
        "type": "Point",
        "coordinates": [
          83.65805550241375,
          -53.534607643533796
        ]
      }
    },
    {
      "type": "Feature",
      "properties": {
        "norad_id": 36437,
        "name": "COSMOS 2251 DEB",
        "group": "cosmos-2251-debris",
        "lat": 55.58843179813535,
        "lon": -173.0539806196359,
        "alt_km": 665.9243703318716,
        "timestamp": "2025-12-13T20:38:51.405295+00:00",
        "meta_object_name": "COSMOS 2251 DEB",
        "meta_object_id": "1993-036BAL",
        "meta_epoch": "2025-12-12T21:14:34.610784",
        "meta_mean_motion": 14.70699745,
        "meta_eccentricity": 0.00231229,
        "meta_inclination": 73.942,
        "meta_ra_of_asc_node": 33.7138,
        "meta_arg_of_pericenter": 265.0024,
        "meta_mean_anomaly": 94.8507,
        "meta_ephemeris_type": 0,
        "meta_classification_type": "U",
        "meta_norad_cat_id": 36437,
        "meta_element_set_no": 999,
        "meta_rev_at_epoch": 66053,
        "meta_bstar": 0.0021741293,
        "meta_mean_motion_dot": 0.00013297,
        "meta_mean_motion_ddot": 0,
        "tle_line1": "1 36437U 93036BAL 25346.88512281  .00013297  00000+0  21741-2 0  9997",
        "tle_line2": "2 36437  73.9420  33.7138 0023122 265.0024  94.8507 14.70699745660539"
      },
      "geometry": {
        "type": "Point",
        "coordinates": [
          -173.0539806196359,
          55.58843179813535
        ]
      }
    },
    {
      "type": "Feature",
      "properties": {
        "norad_id": 36439,
        "name": "COSMOS 2251 DEB",
        "group": "cosmos-2251-debris",
        "lat": -73.90537434597677,
        "lon": -59.88526612814204,
        "alt_km": 1117.8458013540421,
        "timestamp": "2025-12-13T20:38:51.405305+00:00",
        "meta_object_name": "COSMOS 2251 DEB",
        "meta_object_id": "1993-036BAN",
        "meta_epoch": "2025-12-11T12:04:38.629632",
        "meta_mean_motion": 13.47792153,
        "meta_eccentricity": 0.04277143,
        "meta_inclination": 73.9683,
        "meta_ra_of_asc_node": 38.6892,
        "meta_arg_of_pericenter": 10.8049,
        "meta_mean_anomaly": 350.189,
        "meta_ephemeris_type": 0,
        "meta_classification_type": "U",
        "meta_norad_cat_id": 36439,
        "meta_element_set_no": 999,
        "meta_rev_at_epoch": 58596,
        "meta_bstar": 0.0014143946,
        "meta_mean_motion_dot": 1.502e-05,
        "meta_mean_motion_ddot": 0,
        "tle_line1": "1 36439U 93036BAN 25345.50322488  .00001502  00000+0  14144-2 0  9990",
        "tle_line2": "2 36439  73.9683  38.6892 0427714  10.8049 350.1890 13.47792153585967"
      },
      "geometry": {
        "type": "Point",
        "coordinates": [
          -59.88526612814204,
          -73.90537434597677
        ]
      }
    }
  ]
}